{
    "links": {
        "self": "http://www.neowsapp.com/rest/v1/neo/3767038?api_key=iIulBulltgU6a56xZRHN4H3l9WmuAYTsLGpBGhQ2"
    },
    "id": "3767038",
    "neo_reference_id": "3767038",
    "name": "(2017 BG29)",
    "designation": "2017 BG29",
    "nasa_jpl_url": "http://ssd.jpl.nasa.gov/sbdb.cgi?sstr=3767038",
    "absolute_magnitude_h": 24.2,
    "estimated_diameter": {
        "kilometers": {
            "estimated_diameter_min": 0.0384197891,
            "estimated_diameter_max": 0.0859092601
        },
        "meters": {
            "estimated_diameter_min": 38.4197891064,
            "estimated_diameter_max": 85.9092601232
        },
        "miles": {
            "estimated_diameter_min": 0.0238729428,
            "estimated_diameter_max": 0.0533815229
        },
        "feet": {
            "estimated_diameter_min": 126.0491808919,
            "estimated_diameter_max": 281.8545369825
        }
    },
    "is_potentially_hazardous_asteroid": false,
    "close_approach_data": [
        {
            "close_approach_date": "2007-01-30",
            "close_approach_date_full": "2007-Jan-30 01:23",
            "epoch_date_close_approach": 1170120180000,
            "relative_velocity": {
                "kilometers_per_second": "8.4638272443",
                "kilometers_per_hour": "30469.778079539",
                "miles_per_hour": "18932.7351628114"
            },
            "miss_distance": {
                "astronomical": "0.1555719165",
                "lunar": "60.5174755185",
                "kilometers": "23273227.340217855",
                "miles": "14461312.889222199"
            },
            "orbiting_body": "Earth"
        },
        {
            "close_approach_date": "2017-01-28",
            "close_approach_date_full": "2017-Jan-28 13:58",
            "epoch_date_close_approach": 1485611880000,
            "relative_velocity": {
                "kilometers_per_second": "7.4347971689",
                "kilometers_per_hour": "26765.2698079001",
                "miles_per_hour": "16630.8977870255"
            },
            "miss_distance": {
                "astronomical": "0.0711046406",
                "lunar": "27.6597051934",
                "kilometers": "10637102.780875522",
                "miles": "6609589.1773133236"
            },
            "orbiting_body": "Earth"
        }
    ],
    "orbital_data": {
        "orbit_id": "6",
        "orbit_determination_date": "2017-04-06 08:20:46",
        "first_observation_date": "2017-01-27",
        "last_observation_date": "2017-02-05",
        "data_arc_in_days": 9,
        "observations_used": 89,
        "orbit_uncertainty": "7",
        "minimum_orbit_intersection": ".0693609",
        "jupiter_tisserand_invariant": "5.052",
        "epoch_osculation": "2459000.5",
        "eccentricity": ".1694255367720406",
        "semi_major_axis": "1.267062902119562",
        "inclination": "13.60718421090948",
        "ascending_node_longitude": "309.5378985683709",
        "orbital_period": "520.9495775603713",
        "perihelion_distance": "1.052390089804016",
        "perihelion_argument": "170.3547210531744",
        "aphelion_distance": "1.481735714435109",
        "perihelion_time": "2458816.063449642725",
        "mean_anomaly": "127.4540972651513",
        "mean_motion": ".6910457662445857",
        "equinox": "J2000",
        "orbit_class": {
            "orbit_class_type": "AMO",
            "orbit_class_description": "Near-Earth asteroid orbits similar to that of 1221 Amor",
            "orbit_class_range": "1.017 AU < q (perihelion) < 1.3 AU"
        }
    },
    "is_sentry_object": false
}